{"type": "FeatureCollection", "features": [{"type": "Feature", "properties": {"norad_id": 24876, "name": "GPS BIIR-2  (PRN 13)", "group": "gnss", "lat": -17.07088010974719, "lon": -62.52199522500907, "alt_km": 20391.275430323505, "timestamp": "2025-12-22T11:33:20.681599+00:00", "meta": {"OBJECT_NAME": "GPS BIIR-2  (PRN 13)", "OBJECT_ID": "1997-035A", "EPOCH": "2025-12-21T16:58:15.798720", "MEAN_MOTION": 2.00563737, "ECCENTRICITY": 0.0096828, "INCLINATION": 55.8995, "RA_OF_ASC_NODE": 105.5182, "ARG_OF_PERICENTER": 56.9616, "MEAN_ANOMALY": 303.9479, "EPHEMERIS_TYPE": 0, "CLASSIFICATION_TYPE": "U", "NORAD_CAT_ID": 24876, "ELEMENT_SET_NO": 999, "REV_AT_EPOCH": 20839, "BSTAR": 0, "MEAN_MOTION_DOT": 7e-08, "MEAN_MOTION_DDOT": 0}, "tle": {"line1": "1 24876U 97035A   25355.70712730  .00000007  00000+0  00000+0 0  9993", "line2": "2 24876  55.8995 105.5182 0096828  56.9616 303.9479  2.00563737208398"}}, "geometry": {"type": "Point", "coordinates": [-62.52199522500907, -17.07088010974719]}}, {"type": "Feature", "properties": {"norad_id": 26360, "name": "GPS BIIR-4  (PRN 20)", "group": "gnss", "lat": -49.26715293818947, "lon": -27.82228643458489, "alt_km": 20119.88033405568, "timestamp": "2025-12-22T11:33:20.681644+00:00", "meta": {"OBJECT_NAME": "GPS BIIR-4  (PRN 20)", "OBJECT_ID": "2000-025A", "EPOCH": "2025-12-22T04:40:22.099872", "MEAN_MOTION": 2.00566942, "ECCENTRICITY": 0.0038897, "INCLINATION": 55.0508, "RA_OF_ASC_NODE": 26.4555, "ARG_OF_PERICENTER": 242.8773, "MEAN_ANOMALY": 202.1422, "EPHEMERIS_TYPE": 0, "CLASSIFICATION_TYPE": "U", "NORAD_CAT_ID": 26360, "ELEMENT_SET_NO": 999, "REV_AT_EPOCH": 18772, "BSTAR": 0, "MEAN_MOTION_DOT": -5.9e-07, "MEAN_MOTION_DDOT": 0}, "tle": {"line1": "1 26360U 00025A   25356.19470023 -.00000059  00000+0  00000+0 0  9994", "line2": "2 26360  55.0508  26.4555 0038897 242.8773 202.1422  2.00566942187729"}}, "geometry": {"type": "Point", "coordinates": [-27.82228643458489, -49.26715293818947]}}, {"type": "Feature", "properties": {"norad_id": 26407, "name": "GPS BIIR-5  (PRN 22)", "group": "gnss", "lat": 37.78838557278571, "lon": 9.144598794812387, "alt_km": 20505.42989794514, "timestamp": "2025-12-22T11:33:20.681663+00:00", "meta": {"OBJECT_NAME": "GPS BIIR-5  (PRN 22)", "OBJECT_ID": "2000-040A", "EPOCH": "2025-12-21T19:27:10.878048", "MEAN_MOTION": 2.00568103, "ECCENTRICITY": 0.0125514, "INCLINATION": 54.8888, "RA_OF_ASC_NODE": 222.2083, "ARG_OF_PERICENTER": 301.962, "MEAN_ANOMALY": 65.3389, "EPHEMERIS_TYPE": 0, "CLASSIFICATION_TYPE": "U", "NORAD_CAT_ID": 26407, "ELEMENT_SET_NO": 999, "REV_AT_EPOCH": 18639, "BSTAR": 0, "MEAN_MOTION_DOT": 6.9e-07, "MEAN_MOTION_DDOT": 0}, "tle": {"line1": "1 26407U 00040A   25355.81054257  .00000069  00000+0  00000+0 0  9998", "line2": "2 26407  54.8888 222.2083 0125514 301.9620  65.3389  2.00568103186396"}}, "geometry": {"type": "Point", "coordinates": [9.144598794812387, 37.78838557278571]}}, {"type": "Feature", "properties": {"norad_id": 27663, "name": "GPS BIIR-8  (PRN 16)", "group": "gnss", "lat": -54.77510349574041, "lon": 126.28503626260249, "alt_km": 20508.29059783925, "timestamp": "2025-12-22T11:33:20.681678+00:00", "meta": {"OBJECT_NAME": "GPS BIIR-8  (PRN 16)", "OBJECT_ID": "2003-005A", "EPOCH": "2025-12-20T15:07:28.763328", "MEAN_MOTION": 2.00570507, "ECCENTRICITY": 0.0147742, "INCLINATION": 54.9216, "RA_OF_ASC_NODE": 222.0644, "ARG_OF_PERICENTER": 51.9121, "MEAN_ANOMALY": 319.0535, "EPHEMERIS_TYPE": 0, "CLASSIFICATION_TYPE": "U", "NORAD_CAT_ID": 27663, "ELEMENT_SET_NO": 999, "REV_AT_EPOCH": 16773, "BSTAR": 0, "MEAN_MOTION_DOT": 7.3e-07, "MEAN_MOTION_DDOT": 0}, "tle": {"line1": "1 27663U 03005A   25354.63019402  .00000073  00000+0  00000+0 0  9994", "line2": "2 27663  54.9216 222.0644 0147742  51.9121 319.0535  2.00570507167733"}}, "geometry": {"type": "Point", "coordinates": [126.28503626260249, -54.77510349574041]}}, {"type": "Feature", "properties": {"norad_id": 28190, "name": "GPS BIIR-11 (PRN 19)", "group": "gnss", "lat": 47.869596852334766, "lon": -26.457718030604358, "alt_km": 20238.245319159843, "timestamp": "2025-12-22T11:33:20.681692+00:00", "meta": {"OBJECT_NAME": "GPS BIIR-11 (PRN 19)", "OBJECT_ID": "2004-009A", "EPOCH": "2025-12-22T01:59:41.237088", "MEAN_MOTION": 2.00560473, "ECCENTRICITY": 0.0108492, "INCLINATION": 54.9772, "RA_OF_ASC_NODE": 282.8425, "ARG_OF_PERICENTER": 167.7907, "MEAN_ANOMALY": 330.6754, "EPHEMERIS_TYPE": 0, "CLASSIFICATION_TYPE": "U", "NORAD_CAT_ID": 28190, "ELEMENT_SET_NO": 999, "REV_AT_EPOCH": 15939, "BSTAR": 0, "MEAN_MOTION_DOT": -2.4e-07, "MEAN_MOTION_DDOT": 0}, "tle": {"line1": "1 28190U 04009A   25356.08311617 -.00000024  00000+0  00000+0 0  9996", "line2": "2 28190  54.9772 282.8425 0108492 167.7907 330.6754  2.00560473159390"}}, "geometry": {"type": "Point", "coordinates": [-26.457718030604358, 47.869596852334766]}}, {"type": "Feature", "properties": {"norad_id": 28474, "name": "GPS BIIR-13 (PRN 02)", "group": "gnss", "lat": 41.22577563003062, "lon": 114.52725795808317, "alt_km": 20630.896243326897, "timestamp": "2025-12-22T11:33:20.681705+00:00", "meta": {"OBJECT_NAME": "GPS BIIR-13 (PRN 02)", "OBJECT_ID": "2004-045A", "EPOCH": "2025-12-21T13:21:16.085088", "MEAN_MOTION": 2.00569985, "ECCENTRICITY": 0.0170919, "INCLINATION": 55.2363, "RA_OF_ASC_NODE": 332.0513, "ARG_OF_PERICENTER": 309.6441, "MEAN_ANOMALY": 228.908, "EPHEMERIS_TYPE": 0, "CLASSIFICATION_TYPE": "U", "NORAD_CAT_ID": 28474, "ELEMENT_SET_NO": 999, "REV_AT_EPOCH": 15486, "BSTAR": 0, "MEAN_MOTION_DOT": -7.1e-07, "MEAN_MOTION_DDOT": 0}, "tle": {"line1": "1 28474U 04045A   25355.55643617 -.00000071  00000+0  00000+0 0  9992", "line2": "2 28474  55.2363 332.0513 0170919 309.6441 228.9080  2.00569985154869"}}, "geometry": {"type": "Point", "coordinates": [114.52725795808317, 41.22577563003062]}}, {"type": "Feature", "properties": {"norad_id": 28874, "name": "GPS BIIRM-1 (PRN 17)", "group": "gnss", "lat": 54.884530989547464, "lon": 4.033876912121463, "alt_km": 20483.031472785315, "timestamp": "2025-12-22T11:33:20.681718+00:00", "meta": {"OBJECT_NAME": "GPS BIIRM-1 (PRN 17)", "OBJECT_ID": "2005-038A", "EPOCH": "2025-12-21T00:50:49.977024", "MEAN_MOTION": 2.00577927, "ECCENTRICITY": 0.01313807, "INCLINATION": 55.0245, "RA_OF_ASC_NODE": 280.367, "ARG_OF_PERICENTER": 293.7438, "MEAN_ANOMALY": 187.6731, "EPHEMERIS_TYPE": 0, "CLASSIFICATION_TYPE": "U", "NORAD_CAT_ID": 28874, "ELEMENT_SET_NO": 999, "REV_AT_EPOCH": 14826, "BSTAR": 0, "MEAN_MOTION_DOT": -2.4e-07, "MEAN_MOTION_DDOT": 0}, "tle": {"line1": "1 28874U 05038A   25355.03530066 -.00000024  00000+0  00000+0 0  9993", "line2": "2 28874  55.0245 280.3670 0131380 293.7438 187.6731  2.00577927148263"}}, "geometry": {"type": "Point", "coordinates": [4.033876912121463, 54.884530989547464]}}, {"type": "Feature", "properties": {"norad_id": 28899, "name": "INMARSAT 4-F2 (SOUTHPAN/PRN 122)", "group": "gnss", "lat": 0.3871594540483758, "lon": 48.1183379355547, "alt_km": 35793.52638356797, "timestamp": "2025-12-22T11:33:20.681732+00:00", "meta": {"OBJECT_NAME": "INMARSAT 4-F2 (SOUTHPAN/PRN 122)", "OBJECT_ID": "2005-044A", "EPOCH": "2025-12-21T22:26:26.011392", "MEAN_MOTION": 1.00270836, "ECCENTRICITY": 0.0002358, "INCLINATION": 4.8627, "RA_OF_ASC_NODE": 43.7065, "ARG_OF_PERICENTER": 228.5846, "MEAN_ANOMALY": 298.5669, "EPHEMERIS_TYPE": 0, "CLASSIFICATION_TYPE": "U", "NORAD_CAT_ID": 28899, "ELEMENT_SET_NO": 999, "REV_AT_EPOCH": 7374, "BSTAR": 0, "MEAN_MOTION_DOT": -2.41e-06, "MEAN_MOTION_DDOT": 0}, "tle": {"line1": "1 28899U 05044A   25355.93502328 -.00000241  00000+0  00000+0 0  9997", "line2": "2 28899   4.8627  43.7065 0002358 228.5846 298.5669  1.00270836 73746"}}, "geometry": {"type": "Point", "coordinates": [48.1183379355547, 0.3871594540483758]}}, {"type": "Feature", "properties": {"norad_id": 29486, "name": "GPS BIIRM-2 (PRN 31)", "group": "gnss", "lat": -10.63665276047967, "lon": 150.69497558494078, "alt_km": 20062.93173809041, "timestamp": "2025-12-22T11:33:20.681745+00:00", "meta": {"OBJECT_NAME": "GPS BIIRM-2 (PRN 31)", "OBJECT_ID": "2006-042A", "EPOCH": "2025-12-21T12:25:39.335232", "MEAN_MOTION": 2.00553827, "ECCENTRICITY": 0.01073004, "INCLINATION": 54.6951, "RA_OF_ASC_NODE": 158.3926, "ARG_OF_PERICENTER": 52.1628, "MEAN_ANOMALY": 320.0686, "EPHEMERIS_TYPE": 0, "CLASSIFICATION_TYPE": "U", "NORAD_CAT_ID": 29486, "ELEMENT_SET_NO": 999, "REV_AT_EPOCH": 14083, "BSTAR": 0, "MEAN_MOTION_DOT": 7.1e-07, "MEAN_MOTION_DDOT": 0}, "tle": {"line1": "1 29486U 06042A   25355.51781638  .00000071  00000+0  00000+0 0  9996", "line2": "2 29486  54.6951 158.3926 0107300  52.1628 320.0686  2.00553827140833"}}, "geometry": {"type": "Point", "coordinates": [150.69497558494078, -10.63665276047967]}}, {"type": "Feature", "properties": {"norad_id": 29601, "name": "GPS BIIRM-3 (PRN 12)", "group": "gnss", "lat": 35.8126593291387, "lon": -108.57252706385405, "alt_km": 20002.043772893958, "timestamp": "2025-12-22T11:33:20.681757+00:00", "meta": {"OBJECT_NAME": "GPS BIIRM-3 (PRN 12)", "OBJECT_ID": "2006-052A", "EPOCH": "2025-12-20T22:09:19.492992", "MEAN_MOTION": 2.00574173, "ECCENTRICITY": 0.0087999, "INCLINATION": 54.9689, "RA_OF_ASC_NODE": 221.0734, "ARG_OF_PERICENTER": 87.5315, "MEAN_ANOMALY": 273.5726, "EPHEMERIS_TYPE": 0, "CLASSIFICATION_TYPE": "U", "NORAD_CAT_ID": 29601, "ELEMENT_SET_NO": 999, "REV_AT_EPOCH": 13983, "BSTAR": 0, "MEAN_MOTION_DOT": 7.4e-07, "MEAN_MOTION_DDOT": 0}, "tle": {"line1": "1 29601U 06052A   25354.92314228  .00000074  00000+0  00000+0 0  9990", "line2": "2 29601  54.9689 221.0734 0087999  87.5315 273.5726  2.00574173139836"}}, "geometry": {"type": "Point", "coordinates": [-108.57252706385405, 35.8126593291387]}}]}